Satellite: DUCHIFAT-1
Catalog number: 40021
Epoch time: 17348.812327
Element set: 999
Inclination: 97.916500 deg
RA of node: 262.202300 deg
Eccentricity: 0.001439
Arg of perigee: 68.047700 deg
Mean anomaly: 292.226900 deg
Mean motion: 14.901345 rev/day
Decay rate: 4.080000e-06 rev/day^2
Epoch rev: 1894

Satellite: NANOSATCBR1
Catalog number: 40024
Epoch time: 17348.562129
Element set: 999
Inclination: 97.911200 deg
RA of node: 260.540900 deg
Eccentricity: 0.001368
Arg of perigee: 70.471900 deg
Mean anomaly: 289.797400 deg
Mean motion: 14.894237 rev/day
Decay rate: 4.270000e-06 rev/day^2
Epoch rev: 1888

Satellite: EO-79
Catalog number: 40025
Epoch time: 17348.303799
Element set: 999
Inclination: 97.908300 deg
RA of node: 259.043600 deg
Eccentricity: 0.001391
Arg of perigee: 74.524500 deg
Mean anomaly: 285.750600 deg
Mean motion: 14.885927 rev/day
Decay rate: 3.670000e-06 rev/day^2
Epoch rev: 1887

Satellite: DTUSAT-2
Catalog number: 40030
Epoch time: 17348.556770
Element set: 999
Inclination: 97.904000 deg
RA of node: 258.215300 deg
Eccentricity: 0.001332
Arg of perigee: 69.234400 deg
Mean anomaly: 291.029800 deg
Mean motion: 14.882075 rev/day
Decay rate: 3.280000e-06 rev/day^2
Epoch rev: 1887

Satellite: EO-80
Catalog number: 40032
Epoch time: 17348.808529
Element set: 999
Inclination: 97.904800 deg
RA of node: 258.470900 deg
Eccentricity: 0.001329
Arg of perigee: 68.980600 deg
Mean anomaly: 291.283100 deg
Mean motion: 14.881435 rev/day
Decay rate: 3.090000e-06 rev/day^2
Epoch rev: 1893

Satellite: ANTELSAT
Catalog number: 40034
Epoch time: 17348.613149
Element set: 999
Inclination: 97.834500 deg
RA of node: 226.701800 deg
Eccentricity: 0.006027
Arg of perigee: 72.732000 deg
Mean anomaly: 288.047200 deg
Mean motion: 14.738261 rev/day
Decay rate: 2.870000e-06 rev/day^2
Epoch rev: 1869

Satellite: VELOX-1
Catalog number: 40057
Epoch time: 17348.747770
Element set: 999
Inclination: 98.195300 deg
RA of node: 91.772500 deg
Eccentricity: 0.001074
Arg of perigee: 192.036600 deg
Mean anomaly: 168.058800 deg
Mean motion: 14.772979 rev/day
Decay rate: 3.820000e-06 rev/day^2
Epoch rev: 1864

Satellite: DAURIA DX 1
Catalog number: 40071
Epoch time: 17348.787133
Element set: 999
Inclination: 98.353900 deg
RA of node: 107.218000 deg
Eccentricity: 0.000809
Arg of perigee: 184.396600 deg
Mean anomaly: 175.717800 deg
Mean motion: 14.811015 rev/day
Decay rate: 1.700000e-06 rev/day^2
Epoch rev: 1857

Satellite: UKUBE-1
Catalog number: 40074
Epoch time: 17348.843831
Element set: 999
Inclination: 98.364800 deg
RA of node: 112.102000 deg
Eccentricity: 0.000477
Arg of perigee: 172.507100 deg
Mean anomaly: 187.622600 deg
Mean motion: 14.836755 rev/day
Decay rate: 3.300000e-06 rev/day^2
Epoch rev: 1859

Satellite: HODOYOSHI-1
Catalog number: 40299
Epoch time: 17348.812275
Element set: 999
Inclination: 97.392400 deg
RA of node: 68.742100 deg
Eccentricity: 0.001289
Arg of perigee: 171.298000 deg
Mean anomaly: 307.992200 deg
Mean motion: 15.226438 rev/day
Decay rate: 7.410000e-06 rev/day^2
Epoch rev: 1724

Satellite: CHUBUSAT-1
Catalog number: 40300
Epoch time: 17348.808994
Element set: 999
Inclination: 97.382500 deg
RA of node: 65.308000 deg
Eccentricity: 0.002000
Arg of perigee: 184.185500 deg
Mean anomaly: 292.045600 deg
Mean motion: 15.212876 rev/day
Decay rate: 9.380000e-06 rev/day^2
Epoch rev: 1722

Satellite: QSAT-EOS
Catalog number: 40301
Epoch time: 17348.811402
Element set: 999
Inclination: 97.376700 deg
RA of node: 65.911000 deg
Eccentricity: 0.002703
Arg of perigee: 178.352500 deg
Mean anomaly: 298.776800 deg
Mean motion: 15.241184 rev/day
Decay rate: 2.074000e-05 rev/day^2
Epoch rev: 1723

Satellite: FIREBIRD FU3
Catalog number: 40377
Epoch time: 17348.612637
Element set: 999
Inclination: 99.108100 deg
RA of node: 208.628300 deg
Eccentricity: 0.013412
Arg of perigee: 123.818700 deg
Mean anomaly: 237.589400 deg
Mean motion: 15.164571 rev/day
Decay rate: 1.941000e-05 rev/day^2
Epoch rev: 1583

Satellite: FIREBIRD FU4
Catalog number: 40378
Epoch time: 17348.800774
Element set: 999
Inclination: 99.108300 deg
RA of node: 208.902500 deg
Eccentricity: 0.013432
Arg of perigee: 123.088800 deg
Mean anomaly: 238.331900 deg
Mean motion: 15.164710 rev/day
Decay rate: 1.764000e-05 rev/day^2
Epoch rev: 1583

Satellite: GRIFEX
Catalog number: 40379
Epoch time: 17348.825779
Element set: 999
Inclination: 99.111800 deg
RA of node: 205.935000 deg
Eccentricity: 0.014069
Arg of perigee: 132.919400 deg
Mean anomaly: 228.394000 deg
Mean motion: 15.137727 rev/day
Decay rate: 1.457000e-05 rev/day^2
Epoch rev: 1582

Satellite: NO-84
Catalog number: 40654
Epoch time: 17348.202441
Element set: 166
Inclination: 54.990200 deg
RA of node: 149.963500 deg
Eccentricity: 0.016801
Arg of perigee: 1.246800 deg
Mean anomaly: 358.897100 deg
Mean motion: 15.374587 rev/day
Decay rate: 5.888000e-05 rev/day^2
Epoch rev: 273

Satellite: NO-83
Catalog number: 40655
Epoch time: 17348.363881
Element set: 194
Inclination: 54.977500 deg
RA of node: 111.109100 deg
Eccentricity: 0.012841
Arg of perigee: 24.339600 deg
Mean anomaly: 336.368500 deg
Mean motion: 15.503688 rev/day
Decay rate: 1.555000e-04 rev/day^2
Epoch rev: 275

Satellite: DEORBITSAIL
Catalog number: 40719
Epoch time: 17348.564423
Element set: 999
Inclination: 97.962300 deg
RA of node: 239.879000 deg
Eccentricity: 0.001530
Arg of perigee: 284.931900 deg
Mean anomaly: 75.019700 deg
Mean motion: 14.762731 rev/day
Decay rate: 4.880000e-06 rev/day^2
Epoch rev: 1309

Satellite: NUDT-PHONESAT
Catalog number: 40900
Epoch time: 17348.825668
Element set: 999
Inclination: 97.442400 deg
RA of node: 354.309600 deg
Eccentricity: 0.001259
Arg of perigee: 320.131800 deg
Mean anomaly: 39.899100 deg
Mean motion: 15.205128 rev/day
Decay rate: 2.558000e-05 rev/day^2
Epoch rev: 1238

Satellite: XW-2A
Catalog number: 40903
Epoch time: 17348.786741
Element set: 999
Inclination: 97.405700 deg
RA of node: 16.664800 deg
Eccentricity: 0.001385
Arg of perigee: 342.327500 deg
Mean anomaly: 17.748700 deg
Mean motion: 15.397562 rev/day
Decay rate: 2.165000e-05 rev/day^2
Epoch rev: 1254

Satellite: XW-2C
Catalog number: 40906
Epoch time: 17348.852218
Element set: 999
Inclination: 97.457100 deg
RA of node: 350.798700 deg
Eccentricity: 0.001393
Arg of perigee: 313.327100 deg
Mean anomaly: 46.679900 deg
Mean motion: 15.149226 rev/day
Decay rate: 7.780000e-06 rev/day^2
Epoch rev: 1235

