DUCHIFAT-1
1 40021U 14033M   17348.81232671  .00000408  00000-0  48022-4 0  9993
2 40021  97.9165 262.2023 0014394  68.0477 292.2269 14.90134535189494
NANOSATCBR1
1 40024U 14033Q   17348.56212887  .00000427  00000-0  50863-4 0  9992
2 40024 097.9112 260.5409 0013679 070.4719 289.7974 14.89423717188875
EO-79
1 40025U 14033R   17348.30379878  .00000367  00000-0  45395-4 0  9996
2 40025 097.9083 259.0436 0013907 074.5245 285.7506 14.88592655188772
DTUSAT-2
1 40030U 14033W   17348.55676958  .00000328  00000-0  41635-4 0  9998
2 40030 097.9040 258.2153 0013320 069.2344 291.0298 14.88207510188768
EO-80
1 40032U 14033Y   17348.80852856  .00000309  00000-0  39544-4 0  9996
2 40032  97.9048 258.4709 0013292  68.9806 291.2831 14.88143457189309
ANTELSAT
1 40034U 14033AA  17348.61314858  .00000287  00000-0  50162-4 0  9996
2 40034 097.8345 226.7018 0060273 072.7320 288.0472 14.73826119186967
VELOX-1
1 40057U 14034E   17348.74776983  .00000382  00000-0  61465-4 0  9991
2 40057  98.1953  91.7725 0010735 192.0366 168.0588 14.77297950186414
DAURIA DX 1
1 40071U 14037C   17348.78713262  .00000170  00000-0  29261-4 0  9998
2 40071  98.3539 107.2180 0008095 184.3966 175.7178 14.81101458185709
UKUBE-1
1 40074U 14037F   17348.84383149  .00000330  00000-0  47041-4 0  9999
2 40074  98.3648 112.1020 0004768 172.5071 187.6226 14.83675534185967
HODOYOSHI-1
1 40299U 14070B   17348.81227463  .00000741  00000-0  34786-4 0  9996
2 40299  97.3924  68.7421 0012888 171.2980 307.9922 15.22643782172421
CHUBUSAT-1
1 40300U 14070C   17348.80899355  .00000938  00000-0  44847-4 0  9990
2 40300  97.3825  65.3080 0019996 184.1855 292.0456 15.21287584172248
QSAT-EOS
1 40301U 14070D   17348.81140168  .00002074  00000-0  87465-4 0  9999
2 40301  97.3767  65.9110 0027029 178.3525 298.7768 15.24118351172336
FIREBIRD FU3
1 40377U 15003B   17348.61263678  .00001941  00000-0  83776-4 0  9992
2 40377 099.1081 208.6283 0134120 123.8187 237.5894 15.16457132158334
FIREBIRD FU4
1 40378U 15003C   17348.80077430  .00001764  00000-0  76495-4 0  9996
2 40378  99.1083 208.9025 0134318 123.0888 238.3319 15.16470994158379
GRIFEX
1 40379U 15003D   17348.82577946  .00001457  00000-0  68029-4 0  9999
2 40379  99.1118 205.9350 0140687 132.9194 228.3940 15.13772712158203
NO-84
1 40654U 15025D   17348.20244091  .00005888  00000-0  10610-3 0 01663
2 40654 054.9902 149.9635 0168006 001.2468 358.8971 15.37458685027360
NO-83
1 40655U 15025E   17348.36388069  .00015550  00000-0  19760-3 0 01948
2 40655 054.9775 111.1091 0128414 024.3396 336.3685 15.50368755027558
DEORBITSAIL
1 40719U 15032E   17348.56442317  .00000488  00000-0  77734-4 0  9999
2 40719 097.9623 239.8790 0015298 284.9319 075.0197 14.76273106130930
NUDT-PHONESAT
1 40900U 15049B   17348.82566811  .00002558  00000-0  12000-3 0  9998
2 40900  97.4424 354.3096 0012592 320.1318  39.8991 15.20512794123890
XW-2A
1 40903U 15049E   17348.78674121  .00002165  00000-0  56731-4 0  9994
2 40903  97.4057  16.6648 0013852 342.3275  17.7487 15.39756166125423
XW-2C
1 40906U 15049H   17348.85221814  .00000778  00000-0  45222-4 0  9993
2 40906  97.4571 350.7987 0013932 313.3271  46.6799 15.14922639123583
